AQUA                    
1 27424U 02022A   26073.87972053  .00001195  00000+0  24829-3 0  9997
2 27424  98.4182  41.3394 0000617 100.4652 287.3845 14.61990929269496
CZ-4B R/B               
1 27432U 02024C   26073.90448007  .00000054  00000+0  50589-4 0  9995
2 27432  98.8828 127.2845 0050229   9.4487 163.4282 14.14548742229977
MIDORI II (ADEOS-II)    
1 27597U 02056A   26073.84403996  .00000341  00000+0  15166-3 0  9993
2 27597  98.7775  32.3574 0001400  35.7423 324.3852 14.29289539211034
H-2A R/B                
1 27601U 02056E   26073.87035712  .00000289  00000+0  11574-3 0  9999
2 27601  98.3210  34.0389 0070792 145.3466 269.5911 14.33764480214855
CZ-4B R/B               
1 28059U 03049C   26073.95370933  .00000427  00000+0  10950-3 0  9997
2 28059  98.6882  69.0652 0047462 214.5477 145.2633 14.55025743187363
CZ-2C R/B               
1 28222U 04012C   26073.91669791  .00070462  00000+0  70662-3 0  9991
2 28222  97.7224 139.7067 0012963 287.8705  72.1139 15.65193333205098
SL-16 R/B               
1 28353U 04021B   26073.83116625 -.00000280  00000+0 -12094-3 0  9998
2 28353  70.9997 221.7021 0004348   2.1276 357.9864 14.14595821123565
CZ-4B R/B               
1 28415U 04035C   26073.81717223  .00010780  00000+0  37814-3 0  9992
2 28415  97.3497 107.9986 0030494 312.5769  47.2899 15.29164354180697
CZ-2C R/B               
1 28480U 04046B   26073.74447871  .00000143  00000+0  67910-4 0  9990
2 28480  98.1981 348.4138 0140150 139.5528 221.6175 14.26994029109229
ARIANE 5 R/B            
1 28499U 04049H   26073.88736289  .00000866  00000+0  10192-3 0  9993
2 28499  98.2635 242.5391 0083570 335.0147  24.7032 14.85276439146568
CZ-2D R/B               
1 28738U 05024B   26073.77555569  .00060175  00000+0  72359-3 0  9993
2 28738  97.3595  89.1100 0004905  33.6161 326.5407 15.60651660140575
ALOS (DAICHI)           
1 28931U 06002A   26073.88096869  .00001573  00000+0  27169-3 0  9996
2 28931  98.1225  29.8105 0000758  66.0918 294.0367 14.69828892 74242
